{
  "norad_id": 57302,
  "name": "STARLINK-30233",
  "history": [
    {
      "epoch": "2026-03-28T18:17:25.007136Z",
      "apogee_km": 486.5688926487446,
      "perigee_km": 484.59186749458877,
      "latitude_deg": 4.084530927423972e-05,
      "longitude_deg": 14.96205618665464,
      "height_km": 485.1113463525235,
      "semi_major_axis_km": 6863.717380071666,
      "eccentricity": 0.00014402,
      "inclination_deg": 43.001,
      "raan_deg": 115.4941,
      "arg_perigee_deg": 284.4074,
      "mean_anomaly_deg": 75.6618,
      "mean_motion_rev_day": 15.26735039
    },
    {
      "epoch": "2026-03-29T02:08:27.472704Z",
      "apogee_km": 486.5227861360854,
      "perigee_km": 484.6311465669587,
      "latitude_deg": -1.7317231431851253e-05,
      "longitude_deg": -104.96609525780353,
      "height_km": 485.2072182381842,
      "semi_major_axis_km": 6863.713966351522,
      "eccentricity": 0.0001378,
      "inclination_deg": 43.0,
      "raan_deg": 113.6487,
      "arg_perigee_deg": 278.912,
      "mean_anomaly_deg": 81.1575,
      "mean_motion_rev_day": 15.26736178
    },
    {
      "epoch": "2026-03-30T01:41:34.619712Z",
      "apogee_km": 486.5689181993457,
      "perigee_km": 484.61138321596445,
      "latitude_deg": -5.350668797977259e-06,
      "longitude_deg": -104.7483068175247,
      "height_km": 485.3183941857407,
      "semi_major_axis_km": 6863.727150707655,
      "eccentricity": 0.0001426,
      "inclination_deg": 43.0008,
      "raan_deg": 108.1135,
      "arg_perigee_deg": 272.8496,
      "mean_anomaly_deg": 87.2192,
      "mean_motion_rev_day": 15.26731779
    },
    {
      "epoch": "2026-03-30T01:41:34.620576Z",
      "apogee_km": 486.5687122875315,
      "perigee_km": 484.61158912777864,
      "latitude_deg": -7.706530867837706e-06,
      "longitude_deg": -104.74821293970999,
      "height_km": 485.3184044209728,
      "semi_major_axis_km": 6863.727150707655,
      "eccentricity": 0.00014257,
      "inclination_deg": 43.0008,
      "raan_deg": 108.1136,
      "arg_perigee_deg": 272.8496,
      "mean_anomaly_deg": 87.2192,
      "mean_motion_rev_day": 15.26731779
    },
    {
      "epoch": "2026-03-30T09:32:37.098240Z",
      "apogee_km": 486.547288286255,
      "perigee_km": 484.57919087955725,
      "latitude_deg": -3.1689894405730916e-05,
      "longitude_deg": 135.32382195219768,
      "height_km": 485.26521824184914,
      "semi_major_axis_km": 6863.700239582906,
      "eccentricity": 0.00014337,
      "inclination_deg": 43.0004,
      "raan_deg": 106.2684,
      "arg_perigee_deg": 274.3646,
      "mean_anomaly_deg": 85.7041,
      "mean_motion_rev_day": 15.26740758
    },
    {
      "epoch": "2026-03-31T16:56:45.250656Z",
      "apogee_km": 486.28639420507716,
      "perigee_km": 484.70638579869865,
      "latitude_deg": -3.085791243606517e-05,
      "longitude_deg": 15.620310946798432,
      "height_km": 485.29340692706745,
      "semi_major_axis_km": 6863.633390001888,
      "eccentricity": 0.0001151,
      "inclination_deg": 43.0003,
      "raan_deg": 98.8885,
      "arg_perigee_deg": 268.5195,
      "mean_anomaly_deg": 91.5524,
      "mean_motion_rev_day": 15.26763063
    },
    {
      "epoch": "2026-04-01T16:29:53.208960Z",
      "apogee_km": 486.33260078103467,
      "perigee_km": 484.8047398988174,
      "latitude_deg": -6.06488686760327e-05,
      "longitude_deg": 15.834165917229873,
      "height_km": 485.3102985120393,
      "semi_major_axis_km": 6863.705670339926,
      "eccentricity": 0.0001113,
      "inclination_deg": 43.0009,
      "raan_deg": 93.3528,
      "arg_perigee_deg": 272.6278,
      "mean_anomaly_deg": 87.4445,
      "mean_motion_rev_day": 15.26738946
    },
    {
      "epoch": "2026-04-02T06:37:45.432192Z",
      "apogee_km": 486.21959414072353,
      "perigee_km": 484.88913620649873,
      "latitude_deg": 3.79736345399021e-05,
      "longitude_deg": 159.9652282093249,
      "height_km": 485.3709576242623,
      "semi_major_axis_km": 6863.69136517361,
      "eccentricity": 9.692e-05,
      "inclination_deg": 43.0009,
      "raan_deg": 90.0317,
      "arg_perigee_deg": 266.5451,
      "mean_anomaly_deg": 93.529,
      "mean_motion_rev_day": 15.26743719
    },
    {
      "epoch": "2026-04-03T15:36:07.458048Z",
      "apogee_km": 486.2112021136145,
      "perigee_km": 484.88239293041534,
      "latitude_deg": -5.412667728679977e-05,
      "longitude_deg": 16.270211886717885,
      "height_km": 485.380533211997,
      "semi_major_axis_km": 6863.683797522015,
      "eccentricity": 9.68e-05,
      "inclination_deg": 43.0002,
      "raan_deg": 82.2827,
      "arg_perigee_deg": 265.0521,
      "mean_anomaly_deg": 95.0219,
      "mean_motion_rev_day": 15.26746244
    },
    {
      "epoch": "2026-04-04T15:08:50.729280Z",
      "apogee_km": 485.9662610732439,
      "perigee_km": 482.1275553949772,
      "latitude_deg": 5.534878397701e-05,
      "longitude_deg": 16.585457913602564,
      "height_km": 483.89208145368303,
      "semi_major_axis_km": 6862.18390823411,
      "eccentricity": 0.0002797,
      "inclination_deg": 43.0016,
      "raan_deg": 76.7451,
      "arg_perigee_deg": 267.992,
      "mean_anomaly_deg": 92.0612,
      "mean_motion_rev_day": 15.2724683
    },
    {
      "epoch": "2026-04-05T05:16:18.617952Z",
      "apogee_km": 485.09832063775684,
      "perigee_km": 482.05254372336003,
      "latitude_deg": 1.0875478835000825e-05,
      "longitude_deg": 160.8163378924438,
      "height_km": 483.1803667087582,
      "semi_major_axis_km": 6861.712432180558,
      "eccentricity": 0.00022194,
      "inclination_deg": 43.0018,
      "raan_deg": 73.4223,
      "arg_perigee_deg": 276.5089,
      "mean_anomaly_deg": 83.551,
      "mean_motion_rev_day": 15.27404241
    },
    {
      "epoch": "2026-04-07T14:00:01.999872Z",
      "apogee_km": 484.08522719715984,
      "perigee_km": 481.83835456512224,
      "latitude_deg": 33.69438797716829,
      "longitude_deg": 59.52804073584366,
      "height_km": 485.18636888789507,
      "semi_major_axis_km": 6861.09879088114,
      "eccentricity": 0.00016374,
      "inclination_deg": 43.0016,
      "raan_deg": 60.075,
      "arg_perigee_deg": 259.9549,
      "mean_anomaly_deg": 154.1997,
      "mean_motion_rev_day": 15.27609157
    },
    {
      "epoch": "2026-04-07T20:00:00.999360Z",
      "apogee_km": 484.2730025087212,
      "perigee_km": 481.9991766068415,
      "latitude_deg": -6.50095493137821,
      "longitude_deg": -84.42640463744195,
      "height_km": 484.19404831785954,
      "semi_major_axis_km": 6861.2730895577815,
      "eccentricity": 0.0001657,
      "inclination_deg": 43.0012,
      "raan_deg": 58.6621,
      "arg_perigee_deg": 249.9515,
      "mean_anomaly_deg": 100.6147,
      "mean_motion_rev_day": 15.27550948
    },
    {
      "epoch": "2026-04-08T07:01:35.663232Z",
      "apogee_km": 483.92961503280185,
      "perigee_km": 482.08506498843326,
      "latitude_deg": 2.3944462822985408e-05,
      "longitude_deg": 114.11142278722643,
      "height_km": 482.8915963905475,
      "semi_major_axis_km": 6861.144340010617,
      "eccentricity": 0.00013442,
      "inclination_deg": 43.0008,
      "raan_deg": 56.0674,
      "arg_perigee_deg": 263.304,
      "mean_anomaly_deg": 96.7659,
      "mean_motion_rev_day": 15.27593945
    },
    {
      "epoch": "2026-04-09T06:33:57.563424Z",
      "apogee_km": 484.0227949683922,
      "perigee_km": 482.13266753422795,
      "latitude_deg": -1.1529377841570453e-06,
      "longitude_deg": 114.51531274993559,
      "height_km": 482.9717386971394,
      "semi_major_axis_km": 6861.21473125131,
      "eccentricity": 0.00013774,
      "inclination_deg": 43.0014,
      "raan_deg": 50.5293,
      "arg_perigee_deg": 262.8767,
      "mean_anomaly_deg": 97.1928,
      "mean_motion_rev_day": 15.27570437
    },
    {
      "epoch": "2026-04-10T06:06:18.793152Z",
      "apogee_km": 484.0797279784947,
      "perigee_km": 482.0466171433618,
      "latitude_deg": 5.182202112670338e-05,
      "longitude_deg": 114.92148747613248,
      "height_km": 483.00921103664007,
      "semi_major_axis_km": 6861.200172560928,
      "eccentricity": 0.00014816,
      "inclination_deg": 43.002,
      "raan_deg": 44.9906,
      "arg_perigee_deg": 260.425,
      "mean_anomaly_deg": 99.6435,
      "mean_motion_rev_day": 15.27575299
    },
    {
      "epoch": "2026-04-11T05:38:39.888960Z",
      "apogee_km": 484.1541890392782,
      "perigee_km": 481.96409523070906,
      "latitude_deg": 4.998956689722424e-05,
      "longitude_deg": 115.3281638598144,
      "height_km": 482.97633172088314,
      "semi_major_axis_km": 6861.196142134993,
      "eccentricity": 0.0001596,
      "inclination_deg": 43.0022,
      "raan_deg": 39.4519,
      "arg_perigee_deg": 262.6485,
      "mean_anomaly_deg": 97.4186,
      "mean_motion_rev_day": 15.27576645
    },
    {
      "epoch": "2026-04-13T04:43:21.204480Z",
      "apogee_km": 484.0495379447566,
      "perigee_km": 482.00600862868123,
      "latitude_deg": 5.145786927649829e-05,
      "longitude_deg": 116.14518519914436,
      "height_km": 482.8587592818908,
      "semi_major_axis_km": 6861.164773286719,
      "eccentricity": 0.00014892,
      "inclination_deg": 43.0034,
      "raan_deg": 28.3745,
      "arg_perigee_deg": 266.9791,
      "mean_anomaly_deg": 93.0891,
      "mean_motion_rev_day": 15.27587121
    },
    {
      "epoch": "2026-04-14T04:15:42.613056Z",
      "apogee_km": 483.9726040383375,
      "perigee_km": 482.18457125619716,
      "latitude_deg": -1.2086753611898451e-06,
      "longitude_deg": 116.54990349623883,
      "height_km": 482.9398651253124,
      "semi_major_axis_km": 6861.215587647267,
      "eccentricity": 0.0001303,
      "inclination_deg": 43.0036,
      "raan_deg": 22.8352,
      "arg_perigee_deg": 264.5912,
      "mean_anomaly_deg": 95.4791,
      "mean_motion_rev_day": 15.27570151
    }
  ]
}